NORAD_CAT_ID,OBJECT_NAME,OBJECT_TYPE,EPOCH,MEAN_MOTION,ECCENTRICITY,INCLINATION,RA_OF_ASC_NODE,ARG_OF_PERICENTER,MEAN_ANOMALY,BSTAR,MEAN_MOTION_DOT,MEAN_MOTION_DDOT,TLE_LINE0,TLE_LINE1,TLE_LINE2,SEMIMAJOR_AXIS,PERIOD,APOGEE,PERIGEE,DECAYED
52704.0,STARLINK-3999,PAYLOAD,2024-03-09 23:43:49,15.0884171,0.0001413,53.2157,169.8742,81.7348,278.3804,0.00012508,1.703e-05,0.0,0 STARLINK-3999,1 52704U 22053BA  24069.98876202  .00001703  00000-0  12508-3 0  9993,2 52704  53.2157 169.8742 0001413  81.7348 278.3804 15.08841710100727,6917.875,95.437,540.718,538.763,0.0
52704.0,STARLINK-3999,PAYLOAD,2024-03-10 12:26:54,15.08835406,0.000147,53.2172,167.4974,89.4219,270.6942,-2.5603e-05,-6.95e-06,0.0,0 STARLINK-3999,1 52704U 22053BA  24070.51869106 -.00000695  00000-0 -25603-4 0  9991,2 52704  53.2172 167.4974 0001470  89.4219 270.6942 15.08835406100802,6917.894,95.438,540.776,538.743,0.0
52704.0,STARLINK-3999,PAYLOAD,2024-03-11 12:17:41,15.08841784,0.0001305,53.2156,163.0367,89.0929,271.0213,0.00022,3.215e-05,0.0,0 STARLINK-3999,1 52704U 22053BA  24071.51228409  .00003215  00000-0  22000-3 0  9993,2 52704  53.2156 163.0367 0001305  89.0929 271.0213 15.08841784100951,6917.875,95.437,540.643,538.837,0.0
52704.0,STARLINK-3999,PAYLOAD,2024-03-12 12:08:28,15.08841329,0.0001553,53.2173,158.5751,97.9262,262.1906,0.00014399,2.004e-05,0.0,0 STARLINK-3999,1 52704U 22053BA  24072.50588625  .00002004  00000-0  14399-3 0  9999,2 52704  53.2173 158.5751 0001553  97.9262 262.1906 15.08841329101102,6917.876,95.437,540.816,538.667,0.0
52704.0,STARLINK-3999,PAYLOAD,2024-03-13 11:59:15,15.08843067,0.000147,53.2153,154.1147,92.4513,267.6648,8.6064e-05,1.082e-05,0.0,0 STARLINK-3999,1 52704U 22053BA  24073.49948312  .00001082  00000-0  86064-4 0  9995,2 52704  53.2153 154.1147 0001470  92.4513 267.6648 15.08843067101685,6917.871,95.437,540.753,538.719,0.0
52704.0,STARLINK-3999,PAYLOAD,2024-03-13 15:10:01,15.0885379,0.0001465,53.2164,153.5194,93.3996,266.7164,0.00022134,3.238e-05,0.0,0 STARLINK-3999,1 52704U 22053BA  24073.63195792  .00003238  00000-0  22134-3 0  9999,2 52704  53.2164 153.5194 0001465  93.3996 266.7164 15.08853790101273,6917.838,95.437,540.717,538.69,0.0
52704.0,STARLINK-3999,PAYLOAD,2024-03-14 05:28:29,15.08844287,0.000135,53.2151,150.8396,101.1987,258.9156,0.00010199,1.336e-05,0.0,0 STARLINK-3999,1 52704U 22053BA  24074.22812030  .00001336  00000-0  10199-3 0  9991,2 52704  53.2151 150.8396 0001350 101.1987 258.9156 15.08844287101369,6917.867,95.437,540.666,538.798,0.0
52704.0,STARLINK-3999,PAYLOAD,2024-03-14 11:50:02,15.08838375,0.000127,53.2163,149.6499,104.0959,256.0174,2.4989e-05,1.1e-06,0.0,0 STARLINK-3999,1 52704U 22053BA  24074.49308421  .00000110  00000-0  24989-4 0  9996,2 52704  53.2163 149.6499 0001270 104.0959 256.0174 15.08838375101409,6917.885,95.438,540.629,538.872,0.0
52704.0,STARLINK-3999,PAYLOAD,2024-03-15 11:40:49,15.08840543,0.0001394,53.2168,145.1925,95.9568,264.1583,-3.1518e-05,-7.9e-06,0.0,0 STARLINK-3999,1 52704U 22053BA  24075.48668627 -.00000790  00000-0 -31518-4 0  9995,2 52704  53.2168 145.1925 0001394  95.9568 264.1583 15.08840543101987,6917.879,95.438,540.708,538.779,0.0
52704.0,STARLINK-3999,PAYLOAD,2024-03-16 05:10:04,15.08832486,0.0001407,53.2169,141.92,98.1036,262.0115,7.7255e-05,9.42e-06,0.0,0 STARLINK-3999,1 52704U 22053BA  24076.21532942  .00000942  00000-0  77255-4 0  9992,2 52704  53.2169 141.9200 0001407  98.1036 262.0115 15.08832486101668,6917.903,95.438,540.742,538.795,0.0
52704.0,STARLINK-3999,PAYLOAD,2024-03-16 09:56:14,15.08830322,0.0001368,53.2166,141.0273,91.01,269.1049,5.1155e-05,5.26e-06,0.0,0 STARLINK-3999,1 52704U 22053BA  24076.41405288  .00000526  00000-0  51155-4 0  9995,2 52704  53.2166 141.0273 0001368  91.0100 269.1049 15.08830322102129,6917.91,95.438,540.721,538.829,0.0
52704.0,STARLINK-3999,PAYLOAD,2024-03-17 11:22:24,15.08839152,0.0001391,53.2167,136.273,88.8852,271.2299,0.00012185,1.652e-05,0.0,0 STARLINK-3999,1 52704U 22053BA  24077.47389008  .00001652  00000-0  12185-3 0  9993,2 52704  53.2167 136.2730 0001391  88.8852 271.2299 15.08839152101858,6917.883,95.438,540.71,538.786,0.0
52704.0,STARLINK-3999,PAYLOAD,2024-03-18 11:13:11,15.08841194,0.0001397,53.2168,131.813,88.3377,271.7775,0.00013648,1.885e-05,0.0,0 STARLINK-3999,1 52704U 22053BA  24078.46748963  .00001885  00000-0  13648-3 0  9995,2 52704  53.2168 131.8130 0001397  88.3377 271.7775 15.08841194102435,6917.877,95.437,540.708,538.775,0.0
52704.0,STARLINK-3999,PAYLOAD,2024-03-19 09:28:34,15.08848974,0.0001543,53.2167,127.6499,80.553,279.5637,0.00010623,1.403e-05,0.0,0 STARLINK-3999,1 52704U 22053BA  24079.39484531  .00001403  00000-0  10623-3 0  9992,2 52704  53.2167 127.6499 0001543  80.5530 279.5637 15.08848974102574,6917.853,95.437,540.785,538.651,0.0
52704.0,STARLINK-3999,PAYLOAD,2024-03-19 12:39:20,15.08852988,0.000149,53.2165,127.0546,86.3281,273.7882,0.00013382,1.843e-05,0.0,0 STARLINK-3999,1 52704U 22053BA  24079.52732138  .00001843  00000-0  13382-3 0  9999,2 52704  53.2165 127.0546 0001490  86.3281 273.7882 15.08852988102160,6917.841,95.437,540.736,538.675,0.0
52704.0,STARLINK-3999,PAYLOAD,2024-03-20 09:19:22,15.08839026,0.000186,53.2164,123.181,140.3483,219.7645,-9.8602e-05,-1.857e-05,0.0,0 STARLINK-3999,1 52704U 22053BA  24080.38845168 -.00001857  00000-0 -98602-4 0  9999,2 52704  53.2164 123.1810 0001860 140.3483 219.7645 15.08839026102295,6917.883,95.438,541.035,538.462,0.0
52704.0,STARLINK-3999,PAYLOAD,2024-03-21 09:10:08,15.08847665,0.0001351,53.216,118.7289,101.0185,259.0959,6.2821e-05,7.12e-06,0.0,0 STARLINK-3999,1 52704U 22053BA  24081.38204679  .00000712  00000-0  62821-4 0  9997,2 52704  53.2160 118.7289 0001351 101.0185 259.0959 15.08847665102449,6917.857,95.437,540.657,538.787,0.0
52704.0,STARLINK-3999,PAYLOAD,2024-03-21 13:56:17,15.08844924,0.000173,53.217,117.8351,116.865,243.2519,0.0003104,4.656e-05,0.0,0 STARLINK-3999,1 52704U 22053BA  24081.58076349  .00004656  00000-0  31040-3 0  9999,2 52704  53.2170 117.8351 0001730 116.8650 243.2519 15.08844924102905,6917.865,95.437,540.927,538.534,0.0
52704.0,STARLINK-3999,PAYLOAD,2024-03-22 12:11:43,15.08827913,0.0001778,53.2183,113.6694,113.077,247.0409,9.5295e-05,1.228e-05,0.0,0 STARLINK-3999,1 52704U 22053BA  24082.50813900  .00001228  00000-0  95295-4 0  9999,2 52704  53.2183 113.6694 0001778 113.0770 247.0409 15.08827913102614,6917.917,95.438,541.012,538.552,0.0
52704.0,STARLINK-3999,PAYLOAD,2024-03-23 18:24:02,15.08846595,0.0001419,53.2171,108.0221,94.6689,265.4466,1.1545e-05,-1.04e-06,0.0,0 STARLINK-3999,1 52704U 22053BA  24083.76669355 -.00000104  00000-0  11545-4 0  9990,2 52704  53.2171 108.0221 0001419  94.6689 265.4466 15.08846595102805,6917.86,95.437,540.707,538.744,0.0
52704.0,STARLINK-3999,PAYLOAD,2024-03-24 10:17:53,15.08854716,0.0001513,53.2162,105.0506,93.9671,266.1495,0.00027829,4.146e-05,0.0,0 STARLINK-3999,1 52704U 22053BA  24084.42908922  .00004146  00000-0  27829-3 0  9990,2 52704  53.2162 105.0506 0001513  93.9671 266.1495 15.08854716103339,6917.835,95.437,540.747,538.654,0.0
52704.0,STARLINK-3999,PAYLOAD,2024-03-24 18:14:48,15.08863117,0.0001379,53.2157,103.5608,79.1856,280.9292,0.00039882,6.069e-05,0.0,0 STARLINK-3999,1 52704U 22053BA  24084.76028254  .00006069  00000-0  39882-3 0  9996,2 52704  53.2157 103.5608 0001379  79.1856 280.9292 15.08863117102951,6917.81,95.436,540.629,538.721,0.0
52704.0,STARLINK-3999,PAYLOAD,2024-03-25 10:08:41,15.08834505,0.000154,53.2168,100.5892,84.8294,275.2874,5.5825e-05,6e-06,0.0,0 STARLINK-3999,1 52704U 22053BA  24085.42269958  .00000600  00000-0  55825-4 0  9999,2 52704  53.2168 100.5892 0001540  84.8294 275.2874 15.08834505103058,6917.897,95.438,540.828,538.697,0.0
52704.0,STARLINK-3999,PAYLOAD,2024-03-25 18:05:36,15.08842614,0.0001525,53.2163,99.1024,79.9395,280.1769,7.5669e-05,9.17e-06,0.0,0 STARLINK-3999,1 52704U 22053BA  24085.75389531  .00000917  00000-0  75669-4 0  9994,2 52704  53.2163  99.1024 0001525  79.9395 280.1769 15.08842614103534,6917.872,95.437,540.792,538.682,0.0
52704.0,STARLINK-3999,PAYLOAD,2024-03-26 05:13:19,15.08820955,0.0001443,53.2165,97.018,92.393,267.7228,-0.00025515,-4.344e-05,0.0,0 STARLINK-3999,1 52704U 22053BA  24086.21758717 -.00004344  00000-0 -25515-3 0  9996,2 52704  53.2165  97.0180 0001443  92.3930 267.7228 15.08820955103174,6917.939,95.439,540.802,538.805,0.0
52704.0,STARLINK-3999,PAYLOAD,2024-03-26 09:59:29,15.088251,0.0001377,53.2141,96.1269,91.8433,268.2717,-0.00013667,-2.461e-05,0.0,0 STARLINK-3999,1 52704U 22053BA  24086.41630883 -.00002461  00000-0 -13667-3 0  9994,2 52704  53.2141  96.1269 0001377  91.8433 268.2717 15.08825100103631,6917.926,95.438,540.744,538.838,0.0
52704.0,STARLINK-3999,PAYLOAD,2024-03-26 17:56:24,15.08829654,0.000134,53.2151,94.641,92.3938,267.7208,8.6542e-05,1.089e-05,0.0,0 STARLINK-3999,1 52704U 22053BA  24086.74751125  .00001089  00000-0  86542-4 0  9999,2 52704  53.2151  94.6410 0001340  92.3938 267.7208 15.08829654103254,6917.912,95.438,540.704,538.85,0.0
52704.0,STARLINK-3999,PAYLOAD,2024-03-27 06:39:30,15.0884234,0.0001303,53.2141,92.2622,90.2666,269.8476,0.00083794,0.00013074,0.0,0 STARLINK-3999,1 52704U 22053BA  24087.27743521  .00013074  00000-0  83794-3 0  9991,2 52704  53.2141  92.2622 0001303  90.2666 269.8476 15.08842340103769,6917.873,95.437,540.64,538.837,0.0
52704.0,STARLINK-3999,PAYLOAD,2024-03-27 17:47:12,15.08857351,0.0001281,53.2144,90.1799,92.4649,267.6489,0.00085379,0.00013333,0.0,0 STARLINK-3999,1 52704U 22053BA  24087.74111130  .00013333  00000-0  85379-3 0  9997,2 52704  53.2144  90.1799 0001281  92.4649 267.6489 15.08857351103403,6917.827,95.436,540.579,538.806,0.0
52704.0,STARLINK-3999,PAYLOAD,2024-03-28 09:41:02,15.08861561,0.000147,53.2167,87.2044,95.3728,264.7432,0.00052454,8.075e-05,0.0,0 STARLINK-3999,1 52704U 22053BA  24088.40350443  .00008075  00000-0  52454-3 0  9998,2 52704  53.2167  87.2044 0001470  95.3728 264.7432 15.08861561103503,6917.814,95.436,540.696,538.663,0.0
